OSCAR 7 (AO-7)          
1 07530U 74089B   19340.49501605 -.00000041  00000-0  25393-4 0  9992
2 07530 101.7716 306.5553 0012408  18.6556 104.0724 12.53641025 61928
UOSAT 2 (UO-11)         
1 14781U 84021B   19340.52804958  .00000056  00000-0  13025-4 0  9990
2 14781  97.6001 357.0614 0009864 114.7714 245.4528 14.83125520924088
LUSAT (LO-19)           
1 20442U 90005G   19340.60521462  .00000010  00000-0  20075-4 0  9998
2 20442  98.6684 282.4580 0012008  11.2621 348.8829 14.32939844560851
ITAMSAT (IO-26)         
1 22826U 93061D   19340.52955314 -.00000003  00000-0  16886-4 0  9997
2 22826  98.9103 333.1484 0008443 204.2916 155.7868 14.30407201366570
RADIO ROSTO (RS-15)     
1 23439U 94085A   19339.89036812 -.00000033  00000-0  25570-3 0  9998
2 23439  64.8140 200.8906 0145766  79.8818 281.8513 11.27569113 27082
JAS-2 (FO-29)           
1 24278U 96046B   19340.65714717 -.00000011  00000-0  23494-4 0  9992
2 24278  98.5626 111.0941 0350749 156.7167 205.0306 13.53095182150929
TECHSAT 1B (GO-32)      
1 25397U 98043D   19340.68278159 -.00000010  00000-0  14718-4 0  9990
2 25397  98.7070 278.8784 0000222 232.4303 127.6855 14.23675583112200
ISS (ZARYA)             
1 25544U 98067A   19340.93486111 -.00000450  00000-0  16354-6 0  9995
2 25544  51.6433 224.8684 0006871   7.0745 172.4787 15.50089237202058
PCSAT (NO-44)           
1 26931U 01043C   19340.58003352 -.00000048  00000-0  13416-4 0  9994
2 26931  67.0515 282.6988 0007250 264.6918  95.3356 14.30560831949419
SAUDISAT 1C (SO-50)     
1 27607U 02058C   19340.47256295 -.00000062  00000-0  12171-4 0  9999
2 27607  64.5553 247.4494 0070522 222.9405 136.6180 14.75593348912237
CUTE-1 (CO-55)          
1 27844U 03031E   19340.61227439  .00000051  00000-0  42506-4 0  9990
2 27844  98.6839 346.2696 0008851 255.1191 104.9007 14.22209261852580
CUBESAT XI-IV (CO-57)   
1 27848U 03031J   19340.58288847  .00000040  00000-0  38219-4 0  9994
2 27848  98.6913 346.7737 0008694 268.5533  91.4649 14.21800319852426
MOZHAYETS 4 (RS-22)     
1 27939U 03042A   19340.72544420  .00000087  00000-0  24205-4 0  9996
2 27939  98.0639 113.4645 0011895 243.4029 116.5960 14.66822128865613
CUBESAT XI-V            
1 28895U 05043F   19340.61694151  .00000119  00000-0  31706-4 0  9996
2 28895  97.9826 117.7494 0017164 168.0740 192.0872 14.63717928752486
CUTE-1.7+APD II (CO-65) 
1 32785U 08021C   19340.45070770  .00000202  00000-0  27343-4 0  9990
2 32785  97.5589 332.1975 0014393  60.0975 300.1670 14.88384845629082
DELFI-C3 (DO-64)        
1 32789U 08021G   19340.64896971  .00000624  00000-0  45327-4 0  9994
2 32789  97.4447  24.9927 0010633 258.1484 101.8552 15.07305039632718
SEEDS II (CO-66)        
1 32791U 08021J   19340.51593976  .00000180  00000-0  23558-4 0  9991
2 32791  97.5325 338.3687 0014150  34.5591 325.6544 14.90925869629561
YUBILEINY (RS-30)       
1 32953U 08025A   19340.67279937  .00000021  00000-0  75656-4 0  9990
2 32953  82.5062  38.4282 0020298 116.3321 243.9848 12.43092653523555
KKS-1 (KISEKI)          
1 33499U 09002H   19340.57115425  .00000075  00000-0  19060-4 0  9998
2 33499  98.3344 184.6244 0009724  29.5108 330.6647 14.75485615584425
SWISSCUBE               
1 35932U 09051B   19340.47103209  .00000124  00000-0  38950-4 0  9996
2 35932  98.5994 151.6155 0007691  10.0997 350.0353 14.56336785541637
BEESAT-1                
1 35933U 09051C   19340.46391263  .00000093  00000-0  31914-4 0  9993
2 35933  98.6008 153.4325 0006161  25.2316 334.9180 14.56419343541741
ITUPSAT1                
1 35935U 09051E   19339.72677686  .00000084  00000-0  30580-4 0  9996
2 35935  98.6117 152.8958 0008461  22.6865 337.4703 14.55572352541348
XIWANG-1 (HOPE-1)       
1 36122U 09072B   19340.74609389 -.00000054  00000-0 -29936-4 0  9999
2 36122 100.0804 335.1302 0007035 313.8559  46.1959 13.16352062479389
JUGNU                   
1 37839U 11058B   19339.84352644  .00000299  00000-0  17477-4 0  9996
2 37839  19.9626  22.9434 0019130  43.2843 111.6605 14.12666123421231
SRMSAT                  
1 37841U 11058D   19340.47658330  .00000298  00000-0  18362-4 0  9994
2 37841  19.9723  79.4113 0011727 273.3283 169.5996 14.10644769420831
M-CUBED & EXP-1 PRIME   
1 37855U 11061F   19340.52199637  .00001024  00000-0  58823-4 0  9993
2 37855 101.7248 323.9079 0172250 290.3315  67.9462 15.05855879442485
STRAND-1                
1 39090U 13009E   19339.83767760  .00000035  00000-0  27407-4 0  9995
2 39090  98.4699 182.8097 0009817 138.1642 222.0295 14.35108325354773
SOMP                    
1 39134U 13015E   19340.65095241  .00000870  00000-0  48378-4 0  9998
2 39134  64.8615 186.4123 0037637 275.8775  83.8063 15.20552635366584
BEESAT-3                
1 39135U 13015F   19340.68236877  .00000497  00000-0  34028-4 0  9996
2 39135  64.8655 207.0404 0041956 278.7353  80.9022 15.17774743366196
BEESAT-2                
1 39136U 13015G   19339.92786126  .00000693  00000-0  44431-4 0  9996
2 39136  64.8690 213.8028 0030599 284.5159  75.2573 15.17192996365600
ZACUBE-1 (TSHEPISOSAT)  
1 39417U 13066B   19340.48841776  .00000162  00000-0  26739-4 0  9992
2 39417  97.5614 344.3829 0058581 192.5860 167.3894 14.81187996326327
GOMX-1                  
1 39430U 13066Q   19340.76871075  .00000203  00000-0  45272-4 0  9992
2 39430  97.7694 286.2414 0152411  74.9532 286.8485 14.59318892321551
CUBEBUG-2 (LO-74)       
1 39440U 13066AA  19340.53245635  .00000161  00000-0  29574-4 0  9995
2 39440  97.6136 328.9849 0078811 249.6927 109.5801 14.75926707325171
FUNCUBE-1 (AO-73)       
1 39444U 13066AE  19340.52899258  .00000225  00000-0  33958-4 0  9996
2 39444  97.5578 346.5214 0057874 185.5191 174.5393 14.82022141325235
UWE-3                   
1 39446U 13066AG  19340.51478417  .00000152  00000-0  26859-4 0  9998
2 39446  97.5869 336.1367 0068979 221.7479 137.8459 14.78460632324504
SPROUT                  
1 39770U 14029E   19340.77053649  .00000487  00000-0  59764-4 0  9994
2 39770  97.8913  83.0379 0007950 240.6474 119.3943 14.87529284300264
UNISAT-6                
1 40012U 14033C   19340.53857785  .00000111  00000-0  24083-4 0  9997
2 40012  97.7320 199.5666 0056928 266.5838  92.8858 14.74040841293857
DUCHIFAT-1              
1 40021U 14033M   19340.51042857  .00000205  00000-0  26723-4 0  9998
2 40021  97.9311 265.7096 0012151 201.5089 158.5620 14.90754836296998
QB50P1                  
1 40025U 14033R   19340.52571897  .00000227  00000-0  30052-4 0  9998
2 40025  97.9089 259.9336 0011525 212.4387 147.6123 14.89032769296744
NUDT-PHONESAT           
1 40900U 15049B   19340.86400642  .00001665  00000-0  72988-4 0  9995
2 40900  97.4361 348.5627 0011500 309.6173 171.3688 15.23361074233718
ZDPS 2A                 
1 40901U 15049C   19340.76839137  .00000686  00000-0  37063-4 0  9997
2 40901  97.4621 344.1565 0012937 335.0778 196.8703 15.17964731233183
ZDPS 2B                 
1 40902U 15049D   19340.73402759  .00001104  00000-0  57749-4 0  9990
2 40902  97.4571 341.4843 0012697 332.0072 142.7226 15.17866707233155
XW-2A                   
1 40903U 15049E   19340.70231200  .00001433  00000-0  35128-4 0  9991
2 40903  97.3166  24.2728 0011727 243.0555 235.0680 15.42392524236605
KAITUO 1A               
1 40904U 15049F   19340.76711895  .00000379  00000-0  23453-4 0  9997
2 40904  97.4725 339.9080 0013991 341.6954 201.9823 15.15526073232906
2015-049G               
1 40905U 15049G   19340.77031265  .00000092  00000-0  85936-5 0  9992
2 40905  97.4779 337.2882 0015015 336.5719 196.8010 15.14406164232769
XW-2C                   
1 40906U 15049H   19340.38818984  .00000602  00000-0  34902-4 0  9994
2 40906  97.4727 339.7010 0014037 333.4681 133.7663 15.15850149232851
XW-2D                   
1 40907U 15049J   19340.75215487  .00000695  00000-0  39550-4 0  9991
2 40907  97.4713 339.7433 0013308 329.4693 204.2778 15.16055325232927
LILACSAT-2              
1 40908U 15049K   19340.72799213  .00000470  00000-0  29519-4 0  9998
2 40908  97.4848 338.3398 0015249 337.1059 137.9845 15.13908852232689
XW-2F                   
1 40910U 15049M   19340.86799053  .00000944  00000-0  50309-4 0  9995
2 40910  97.4653 342.1263 0013771 319.8990 158.3488 15.17578527232977
XW-2B                   
1 40911U 15049N   19340.79261270  .00000440  00000-0  26338-4 0  9999
2 40911  97.4721 340.4603 0013377 330.2966 202.4368 15.15982346232823
KAITUO 1B               
1 40912U 15049P   19340.70414561  .00000851  00000-0  42741-4 0  9996
2 40912  97.4500 345.8736 0013400 299.2128 184.9891 15.19924289233288
TIANWANG 1C (TW-1C)     
1 40926U 15051B   19340.90443721  .00010721  00000-0  13655-3 0  9994
2 40926  97.1147  27.0334 0009034  94.4655  78.4852 15.59459301236805
TIANWANG 1A (TW-1A)     
1 40928U 15051D   19340.77808832  .00001862  00000-0  46116-4 0  9994
2 40928  97.1304   8.2281 0011217 162.3647 310.7997 15.41623596235526
LAPAN-A2                
1 40931U 15052B   19337.59853776  .00000317  00000-0 -44920-4 0  9998
2 40931   5.9991 299.1110 0012413   7.6203 352.6160 14.76621820226116
E-ST@R-II               
1 41459U 16025D   19340.73616058  .00002024  00000-0  10556-3 0  9998
2 41459  98.1012  75.8538 0167735 143.2601 218.0264 15.05894055198281
AAUSAT 4                
1 41460U 16025E   19340.82212747  .00002572  00000-0  12991-3 0  9990
2 41460  98.0954  77.6401 0156993 133.9827 227.4478 15.07957943198454
NUSAT-1 (FRESCO)        
1 41557U 16033B   19340.64268063  .00000893  00000-0  35784-4 0  9998
2 41557  97.4130  67.1324 0015026  57.9088 302.3608 15.27580136196187
BEESAT-4                
1 41619U 16040W   19340.63555040  .00001083  00000-0  48229-4 0  9998
2 41619  97.3477  39.5099 0012412 136.7139 223.5076 15.23517957179888
CAS-2T & KS-1Q          
1 41847U 16066G   19340.63974814  .00000062  00000-0  18923-4 0  9997
2 41847  98.6844  23.9024 0366882  86.2550 278.0500 14.38025203161563
NAYIF-1 (EO-88)         
1 42017U 17008BX  19339.69459225  .00001120  00000-0  46441-4 0  9994
2 42017  97.3854  44.8959 0004677 296.4282  63.6476 15.25951802155841
MAX VALIER SAT          
1 42778U 17036P   19340.64833144  .00000690  00000-0  32932-4 0  9993
2 42778  97.3337  34.3631 0011824 351.8066   8.2976 15.22286507136243
RADFXSAT (FOX-1B)       
1 43017U 17073E   19340.33375534  .00000619  00000-0  54143-4 0  9990
2 43017  97.7247 255.0230 0256932 322.9941  35.3785 14.78730945110479
FOX-1D (AO-92)          
1 43137U 18004AC  19340.65111958  .00000734  00000-0  33477-4 0  9996
2 43137  97.4701  47.9185 0009784  26.2552 333.9179 15.23753951105521
ES'HAIL 2               
1 43700U 18090A   19340.31180938  .00000157  00000-0  00000+0 0  9994
2 43700   0.0197 318.6313 0001501 316.2771 297.9781  1.00269761  4001
FOX-1CLIFF (AO-95)      
1 43770U 18099N   19340.46579742  .00000294  00000-0  32230-4 0  9998
2 43770  97.7294  50.0047 0015922 122.2333 238.0434 14.94864548 54930
ITASAT 1                
1 43786U 18099AE  19340.44091734 -.00000129  00000-0 -65078-5 0  9999
2 43786  97.7311  50.2595 0016569 116.3908 243.9016 14.95224331 54940
JY1SAT (JO-97)          
1 43803U 18099AX  19340.67743912  .00000655  00000-0  64446-4 0  9995
2 43803  97.7268  50.3625 0016645 116.6620 243.6307 14.95373686 54976
PSAT2 (NO-104)          
1 44354U 19036R   19339.39299136  .00010866  00000-0  16443-3 0  9998
2 44354  28.5292 218.1596 0379012  33.5003 328.8968 14.99725089 24462
BRICSAT2 (NO-103)       
1 44355U 19036S   19339.35991804  .00018635  00000-0  28094-3 0  9993
2 44355  28.5295 216.9272 0370518  35.5273 326.9410 15.01798169 24471
JAISAT-1                
1 44419U 19038F   19340.46438697  .00000629  00000-0  39722-4 0  9991
2 44419  97.5125 299.7136 0023409  79.9145 280.4725 15.12458656 23278
